{"type": "FeatureCollection", "features": [ {"type": "Feature", "properties": {"norad_id": 66356, "name": "STARLINK-35851", "group": "last-30-days", "lat": 14.744173446010473, "lon": -32.35304169583692, "alt_km": 389.69737820870705, "timestamp": "2025-12-04T10:51:48.874532+00:00", "meta": {"OBJECT_NAME": "STARLINK-35851", "OBJECT_ID": "2025-254J", "EPOCH": "2025-12-04T04:00:03.000096", "MEAN_MOTION": 15.60094984, "ECCENTRICITY": 0.0001554, "INCLINATION": 53.1594, "RA_OF_ASC_NODE": 317.6559, "ARG_OF_PERICENTER": 95.4296, "MEAN_ANOMALY": 117.0005, "EPHEMERIS_TYPE": 0, "CLASSIFICATION_TYPE": "U", "NORAD_CAT_ID": 66356, "ELEMENT_SET_NO": 999, "REV_AT_EPOCH": 554, "BSTAR": -0.028266, "MEAN_MOTION_DOT": -0.0204436, "MEAN_MOTION_DDOT": 0}, "tle": {"line1": "1 66356U 25254J   25338.16670139 -.02044360  00000+0 -28266-1 0  9993", "line2": "2 66356  53.1594 317.6559 0001554  95.4296 117.0005 15.60094984  5545"}}, "geometry": {"type": "Point", "coordinates": [-32.35304169583692, 14.744173446010473]}}, {"type": "Feature", "properties": {"norad_id": 66357, "name": "STARLINK-35817", "group": "last-30-days", "lat": 16.243785130554897, "lon": -31.119039205867605, "alt_km": 389.44951250756367, "timestamp": "2025-12-04T10:51:48.874543+00:00", "meta": {"OBJECT_NAME": "STARLINK-35817", "OBJECT_ID": "2025-254K", "EPOCH": "2025-12-04T04:00:03.000096", "MEAN_MOTION": 15.60102643, "ECCENTRICITY": 0.0001429, "INCLINATION": 53.1593, "RA_OF_ASC_NODE": 317.652, "ARG_OF_PERICENTER": 96.3935, "MEAN_ANOMALY": 117.9427, "EPHEMERIS_TYPE": 0, "CLASSIFICATION_TYPE": "U", "NORAD_CAT_ID": 66357, "ELEMENT_SET_NO": 999, "REV_AT_EPOCH": 554, "BSTAR": -0.028286, "MEAN_MOTION_DOT": -0.02046068, "MEAN_MOTION_DDOT": 0}, "tle": {"line1": "1 66357U 25254K   25338.16670139 -.02046068  00000+0 -28286-1 0  9993", "line2": "2 66357  53.1593 317.6520 0001429  96.3935 117.9427 15.60102643  5543"}}, "geometry": {"type": "Point", "coordinates": [-31.119039205867605, 16.243785130554897]}}, {"type": "Feature", "properties": {"norad_id": 66358, "name": "STARLINK-35807", "group": "last-30-days", "lat": 17.73733233618604, "lon": -29.865581580139693, "alt_km": 389.136193242377, "timestamp": "2025-12-04T10:51:48.874553+00:00", "meta": {"OBJECT_NAME": "STARLINK-35807", "OBJECT_ID": "2025-254L", "EPOCH": "2025-12-04T04:00:03.000096", "MEAN_MOTION": 15.60101168, "ECCENTRICITY": 0.0001473, "INCLINATION": 53.1594, "RA_OF_ASC_NODE": 317.6476, "ARG_OF_PERICENTER": 93.7102, "MEAN_ANOMALY": 122.5433, "EPHEMERIS_TYPE": 0, "CLASSIFICATION_TYPE": "U", "NORAD_CAT_ID": 66358, "ELEMENT_SET_NO": 999, "REV_AT_EPOCH": 554, "BSTAR": -0.028258, "MEAN_MOTION_DOT": -0.02044257, "MEAN_MOTION_DDOT": 0}, "tle": {"line1": "1 66358U 25254L   25338.16670139 -.02044257  00000+0 -28258-1 0  9991", "line2": "2 66358  53.1594 317.6476 0001473  93.7102 122.5433 15.60101168  5541"}}, "geometry": {"type": "Point", "coordinates": [-29.865581580139693, 17.73733233618604]}}, {"type": "Feature", "properties": {"norad_id": 66359, "name": "STARLINK-35805", "group": "last-30-days", "lat": 19.224701099388295, "lon": -28.58816254529287, "alt_km": 388.96393832016474, "timestamp": "2025-12-04T10:51:48.874563+00:00", "meta": {"OBJECT_NAME": "STARLINK-35805", "OBJECT_ID": "2025-254M", "EPOCH": "2025-12-04T04:00:03.000096", "MEAN_MOTION": 15.60100409, "ECCENTRICITY": 0.0001352, "INCLINATION": 53.1592, "RA_OF_ASC_NODE": 317.6442, "ARG_OF_PERICENTER": 98.6121, "MEAN_ANOMALY": 119.559, "EPHEMERIS_TYPE": 0, "CLASSIFICATION_TYPE": "U", "NORAD_CAT_ID": 66359, "ELEMENT_SET_NO": 999, "REV_AT_EPOCH": 551, "BSTAR": -0.028225, "MEAN_MOTION_DOT": -0.0204202, "MEAN_MOTION_DDOT": 0}, "tle": {"line1": "1 66359U 25254M   25338.16670139 -.02042020  00000+0 -28225-1 0  9992", "line2": "2 66359  53.1592 317.6442 0001352  98.6121 119.5590 15.60100409  5518"}}, "geometry": {"type": "Point", "coordinates": [-28.58816254529287, 19.224701099388295]}}, {"type": "Feature", "properties": {"norad_id": 66360, "name": "STARLINK-35823", "group": "last-30-days", "lat": 22.169196463768934, "lon": -25.96532416265498, "alt_km": 388.4170949544705, "timestamp": "2025-12-04T10:51:48.874574+00:00", "meta": {"OBJECT_NAME": "STARLINK-35823", "OBJECT_ID": "2025-254N", "EPOCH": "2025-12-04T04:00:03.000096", "MEAN_MOTION": 15.60102534, "ECCENTRICITY": 0.0001327, "INCLINATION": 53.1594, "RA_OF_ASC_NODE": 317.6354, "ARG_OF_PERICENTER": 96.914, "MEAN_ANOMALY": 125.0894, "EPHEMERIS_TYPE": 0, "CLASSIFICATION_TYPE": "U", "NORAD_CAT_ID": 66360, "ELEMENT_SET_NO": 999, "REV_AT_EPOCH": 554, "BSTAR": -0.028254, "MEAN_MOTION_DOT": -0.02043961, "MEAN_MOTION_DDOT": 0}, "tle": {"line1": "1 66360U 25254N   25338.16670139 -.02043961  00000+0 -28254-1 0  9991", "line2": "2 66360  53.1594 317.6354 0001327  96.9140 125.0894 15.60102534  5541"}}, "geometry": {"type": "Point", "coordinates": [-25.96532416265498, 22.169196463768934]}}, {"type": "Feature", "properties": {"norad_id": 66361, "name": "STARLINK-35813", "group": "last-30-days", "lat": 20.701700036026914, "lon": -27.28936261479726, "alt_km": 388.6839729220319, "timestamp": "2025-12-04T10:51:48.874584+00:00", "meta": {"OBJECT_NAME": "STARLINK-35813", "OBJECT_ID": "2025-254P", "EPOCH": "2025-12-04T04:00:03.000096", "MEAN_MOTION": 15.60102038, "ECCENTRICITY": 0.0001351, "INCLINATION": 53.159, "RA_OF_ASC_NODE": 317.64, "ARG_OF_PERICENTER": 97.5976, "MEAN_ANOMALY": 122.4891, "EPHEMERIS_TYPE": 0, "CLASSIFICATION_TYPE": "U", "NORAD_CAT_ID": 66361, "ELEMENT_SET_NO": 999, "REV_AT_EPOCH": 554, "BSTAR": -0.028243, "MEAN_MOTION_DOT": -0.0204322, "MEAN_MOTION_DDOT": 0}, "tle": {"line1": "1 66361U 25254P   25338.16670139 -.02043220  00000+0 -28243-1 0  9998", "line2": "2 66361  53.1590 317.6400 0001351  97.5976 122.4891 15.60102038  5548"}}, "geometry": {"type": "Point", "coordinates": [-27.28936261479726, 20.701700036026914]}}, {"type": "Feature", "properties": {"norad_id": 66362, "name": "STARLINK-35822", "group": "last-30-days", "lat": 25.070600858131208, "lon": -23.228319204627404, "alt_km": 387.77207862178693, "timestamp": "2025-12-04T10:51:48.874594+00:00", "meta": {"OBJECT_NAME": "STARLINK-35822", "OBJECT_ID": "2025-254Q", "EPOCH": "2025-12-04T04:00:03.000096", "MEAN_MOTION": 15.60097143, "ECCENTRICITY": 0.0001557, "INCLINATION": 53.1592, "RA_OF_ASC_NODE": 317.6278, "ARG_OF_PERICENTER": 92.1802, "MEAN_ANOMALY": 133.6668, "EPHEMERIS_TYPE": 0, "CLASSIFICATION_TYPE": "U", "NORAD_CAT_ID": 66362, "ELEMENT_SET_NO": 999, "REV_AT_EPOCH": 554, "BSTAR": -0.028305, "MEAN_MOTION_DOT": -0.02046969, "MEAN_MOTION_DDOT": 0}, "tle": {"line1": "1 66362U 25254Q   25338.16670139 -.02046969  00000+0 -28305-1 0  9991", "line2": "2 66362  53.1592 317.6278 0001557  92.1802 133.6668 15.60097143  5547"}}, "geometry": {"type": "Point", "coordinates": [-23.228319204627404, 25.070600858131208]}}, {"type": "Feature", "properties": {"norad_id": 66363, "name": "STARLINK-35806", "group": "last-30-days", "lat": 23.624090790643887, "lon": -24.613632787458613, "alt_km": 388.07493909270124, "timestamp": "2025-12-04T10:51:48.874604+00:00", "meta": {"OBJECT_NAME": "STARLINK-35806", "OBJECT_ID": "2025-254R", "EPOCH": "2025-12-04T04:00:03.000096", "MEAN_MOTION": 15.60101049, "ECCENTRICITY": 0.0001453, "INCLINATION": 53.1591, "RA_OF_ASC_NODE": 317.6316, "ARG_OF_PERICENTER": 93.5502, "MEAN_ANOMALY": 130.371, "EPHEMERIS_TYPE": 0, "CLASSIFICATION_TYPE": "U", "NORAD_CAT_ID": 66363, "ELEMENT_SET_NO": 999, "REV_AT_EPOCH": 551, "BSTAR": -0.028256, "MEAN_MOTION_DOT": -0.02044051, "MEAN_MOTION_DDOT": 0}, "tle": {"line1": "1 66363U 25254R   25338.16670139 -.02044051  00000+0 -28256-1 0  9997", "line2": "2 66363  53.1591 317.6316 0001453  93.5502 130.3710 15.60101049  5517"}}, "geometry": {"type": "Point", "coordinates": [-24.613632787458613, 23.624090790643887]}}, {"type": "Feature", "properties": {"norad_id": 66364, "name": "STARLINK-35797", "group": "last-30-days", "lat": 26.50088419383379, "lon": -21.813584979708025, "alt_km": 387.58699147255084, "timestamp": "2025-12-04T10:51:48.874614+00:00", "meta": {"OBJECT_NAME": "STARLINK-35797", "OBJECT_ID": "2025-254S", "EPOCH": "2025-12-04T04:00:03.000096", "MEAN_MOTION": 15.60103167, "ECCENTRICITY": 0.0001342, "INCLINATION": 53.1594, "RA_OF_ASC_NODE": 317.6235, "ARG_OF_PERICENTER": 93.4988, "MEAN_ANOMALY": 134.2555, "EPHEMERIS_TYPE": 0, "CLASSIFICATION_TYPE": "U", "NORAD_CAT_ID": 66364, "ELEMENT_SET_NO": 999, "REV_AT_EPOCH": 554, "BSTAR": -0.028293, "MEAN_MOTION_DOT": -0.02046457, "MEAN_MOTION_DDOT": 0}, "tle": {"line1": "1 66364U 25254S   25338.16670139 -.02046457  00000+0 -28293-1 0  9991", "line2": "2 66364  53.1594 317.6235 0001342  93.4988 134.2555 15.60103167  5541"}}, "geometry": {"type": "Point", "coordinates": [-21.813584979708025, 26.50088419383379]}}, {"type": "Feature", "properties": {"norad_id": 66365, "name": "STARLINK-35827", "group": "last-30-days", "lat": 29.317374630119744, "lon": -18.872302563289953, "alt_km": 387.0751636050709, "timestamp": "2025-12-04T10:51:48.874624+00:00", "meta": {"OBJECT_NAME": "STARLINK-35827", "OBJECT_ID": "2025-254T", "EPOCH": "2025-12-04T04:00:03.000096", "MEAN_MOTION": 15.60102785, "ECCENTRICITY": 0.0001426, "INCLINATION": 53.1592, "RA_OF_ASC_NODE": 317.6162, "ARG_OF_PERICENTER": 95.9826, "MEAN_ANOMALY": 135.6049, "EPHEMERIS_TYPE": 0, "CLASSIFICATION_TYPE": "U", "NORAD_CAT_ID": 66365, "ELEMENT_SET_NO": 999, "REV_AT_EPOCH": 551, "BSTAR": -0.028286, "MEAN_MOTION_DOT": -0.02046059, "MEAN_MOTION_DDOT": 0}, "tle": {"line1": "1 66365U 25254T   25338.16670139 -.02046059  00000+0 -28286-1 0  9992", "line2": "2 66365  53.1592 317.6162 0001426  95.9826 135.6049 15.60102785  5515"}}, "geometry": {"type": "Point", "coordinates": [-18.872302563289953, 29.317374630119744]}}]}